IRIDIUM 63              
1 25286U 98021B   25080.48050674  .00000909  00000+0  30381-3 0  9997
2 25286  86.3954 118.9401 0002239  96.2633 263.8819 14.36432755411529
IRIDIUM 69              
1 25319U 98026A   25080.13656317  .00001299  00000+0  39978-3 0  9991
2 25319  86.3979 132.6366 0001626  23.9165 336.2110 14.40833720410623
IRIDIUM 71              
1 25320U 98026B   25079.66928558  .00001108  00000+0  33856-3 0  9996
2 25320  86.3965 127.5421 0003546  57.5682 302.5860 14.41037742411096
IRIDIUM 73              
1 25344U 98032C   25080.51871839  .00001872  00000+0  46344-3 0  9998
2 25344  86.4356  84.0568 0001809  82.0825 278.0586 14.51524531418141
IRIDIUM 82              
1 25467U 98051A   25080.24440874  .00038270  00000+0  12761-2 0  9993
2 25467  86.3727 152.8007 0092730 268.8352  90.2270 15.26784676410510
